ONEWEB-0389             
1 50469U 21132A   25308.73140245  .00000114  00000+0  25956-3 0  9992
2 50469  87.9133  50.5031 0001353  97.5975 262.5310 13.17650069188526
ONEWEB-0390             
1 50470U 21132B   25308.73308998  .00000029  00000+0  42341-4 0  9998
2 50470  87.9126  50.5075 0001847  93.3118 266.8224 13.17649305188521
ONEWEB-0391             
1 50471U 21132C   25308.73477003  .00000149  00000+0  35160-3 0  9996
2 50471  87.9124  50.5173 0001225  75.9785 284.1482 13.17651181188529
ONEWEB-0392             
1 50472U 21132D   25308.53732919  .00000013  00000+0 -33593-7 0  9998
2 50472  87.9136  50.5061 0001369  94.5134 265.6153 13.17650976188534
ONEWEB-0393             
1 50473U 21132E   25308.73828101  .00000040  00000+0  69625-4 0  9991
2 50473  87.9136  50.4870 0001492  98.6887 261.4414 13.17648247188553
ONEWEB-0394             
1 50474U 21132F   25308.65515264 -.00000002  00000+0 -36742-4 0  9990
2 50474  87.9226  20.0324 0001646 100.9828 259.1489 13.18687236192007
ONEWEB-0395             
1 50475U 21132G   25308.77823821  .00000537  00000+0  14779-2 0  9990
2 50475  87.8847  65.7659 0001638  90.8993 269.2322 13.11419173186304
ONEWEB-0396             
1 50476U 21132H   25308.95206446  .00000082  00000+0  17494-3 0  9992
2 50476  87.9224  19.9860 0001663 100.4574 259.6746 13.18686229192081
ONEWEB-0397             
1 50477U 21132J   25308.89102275 -.00000041  00000+0 -13772-3 0  9993
2 50477  87.9230  19.9985 0001711 104.9915 255.1407 13.18688693192058
ONEWEB-0398             
1 50478U 21132K   25308.74602072 -.00000530  00000+0 -15309-2 0  9998
2 50478  87.8858  65.7422 0001837  89.3625 270.7714 13.11418185186194
ONEWEB-0399             
1 50479U 21132L   25308.73244961 -.00000392  00000+0 -11426-2 0  9999
2 50479  87.8850  65.7621 0001071 101.4620 258.6629 13.11414042186186
ONEWEB-0400             
1 50480U 21132M   25308.94545947 -.00000015  00000+0 -70201-4 0  9992
2 50480  87.9223  19.9775 0001925  96.2879 263.8472 13.18686842192052
ONEWEB-0401             
1 50481U 21132N   25308.91412890  .00000066  00000+0  13588-3 0  9998
2 50481  87.9223  19.9810 0001799 107.1251 253.0078 13.18687006192054
ONEWEB-0402             
1 50482U 21132P   25308.65020498  .00000053  00000+0  10059-3 0  9995
2 50482  87.9223  20.0258 0001921 120.6037 239.5285 13.18687064192045
ONEWEB-0403             
1 50483U 21132Q   25308.90257715  .00000019  00000+0  15267-4 0  9997
2 50483  87.9228  19.9967 0001728  98.0767 262.0561 13.18686109192034
ONEWEB-0404             
1 50484U 21132R   25308.79011346  .00000347  00000+0  94453-3 0  9990
2 50484  87.8841  65.7587 0001278  91.3665 268.7610 13.11416135186286
ONEWEB-0405             
1 50485U 21132S   25308.61391823  .00000086  00000+0  18427-3 0  9990
2 50485  87.9228  20.0381 0001683 109.8730 250.2584 13.18686175192396
ONEWEB-0406             
1 50486U 21132T   25308.90752836  .00000026  00000+0  33031-4 0  9991
2 50486  87.9229  20.0041 0001673  83.7855 276.3468 13.18687235192060
ONEWEB-0407             
1 50487U 21132U   25308.90092946  .00000084  00000+0  18150-3 0  9999
2 50487  87.9229  19.9895 0001946 104.6115 255.5233 13.18686832192005
ONEWEB-0409             
1 50488U 21132V   25308.78841848  .00000430  00000+0  11776-2 0  9990
2 50488  87.8866  65.7228 0001482  87.6258 272.5040 13.11414040186173
ONEWEB-0412             
1 50489U 21132W   25308.88937038  .00000033  00000+0  50146-4 0  9994
2 50489  87.9229  20.0044 0001795 112.6628 247.4694 13.18686239192097
ONEWEB-0413             
1 50490U 21132X   25308.89432812  .00000038  00000+0  63792-4 0  9993
2 50490  87.9218  20.0198 0001931 110.8207 249.3133 13.18686899192037
ONEWEB-0414             
1 50491U 21132Y   25308.95535858 -.00000381  00000+0 -99893-3 0  9998
2 50491  87.9225  19.9672 0001668 106.7176 253.4139 13.18688787192070
ONEWEB-0417             
1 50492U 21132Z   25308.43247258  .00000055  00000+0  10640-3 0  9995
2 50492  87.9232  20.1048 0001674  94.8154 265.3170 13.18687470191984
ONEWEB-0418             
1 50493U 21132AA  25308.66986771  .00000011  00000+0 -55270-5 0  9994
2 50493  87.9228  20.0427 0001521  87.4681 272.6625 13.18686846192077
ONEWEB-0419             
1 50494U 21132AB  25308.61226698  .00000062  00000+0  12437-3 0  9996
2 50494  87.9228  20.0543 0001848  90.8408 269.2936 13.18686997191987
ONEWEB-0420             
1 50495U 21132AC  25308.95701057  .00000088  00000+0  18975-3 0  9992
2 50495  87.9228  19.9970 0002075 107.6914 252.4445 13.18687066192024
ONEWEB-0421             
1 50496U 21132AD  25308.64690816 -.00000031  00000+0 -11116-3 0  9999
2 50496  87.9225  20.0520 0001626 109.8294 250.3014 13.18685813192029
ONEWEB-0424             
1 50497U 21132AE  25308.91082957  .00000012  00000+0 -30425-5 0  9995
2 50497  87.9227  19.9955 0002030  90.2965 269.8400 13.18686197192085
ONEWEB-0426             
1 50498U 21132AF  25308.64360081 -.00000080  00000+0 -23462-3 0  9990
2 50498  87.9220  20.0389 0001112 107.2699 252.8555 13.18687906191997
ONEWEB-0427             
1 50499U 21132AG  25308.90916260  .00000060  00000+0  11895-3 0  9999
2 50499  87.9225  19.9755 0001689  94.7948 265.3377 13.18686723192058
ONEWEB-0429             
1 50500U 21132AH  25308.66835030 -.00000049  00000+0 -15638-3 0  9998
2 50500  87.9229  20.0545 0001930 102.4122 257.7227 13.18687514191995
ONEWEB-0430             
1 50501U 21132AJ  25308.65680266 -.00000002  00000+0 -38546-4 0  9990
2 50501  87.9232  20.0514 0002071  97.3007 262.8360 13.18687169192034
ONEWEB-0432             
1 50502U 21132AK  25308.61252471  .00000031  00000+0  46791-4 0  9991
2 50502  87.9222  20.0345 0001888  71.9666 288.1672 13.18671927191985
ONEWEB-0440             
1 50503U 21132AL  25308.90422966  .00000023  00000+0  24618-4 0  9997
2 50503  87.9227  19.9929 0001856 113.0294 247.1034 13.18686516192018
ONEWEB-0450             
1 50504U 21132AM  25308.59425508  .00000033  00000+0  52101-4 0  9997
2 50504  87.9230  20.0777 0002143 103.0589 257.0782 13.18684006192004
ONEWEB-0410             
1 51622U 22012A   25308.74996099 -.00000001  00000+0 -35456-4 0  9993
2 51622  87.9137  50.4702 0000615  46.4000 313.7183 13.17650832184147
ONEWEB-0411             
1 51623U 22012B   25308.82739956  .00000521  00000+0  14556-2 0  9991
2 51623  87.8785  80.9914 0002097  91.0108 269.1259 13.10371814179909
ONEWEB-0415             
1 51624U 22012C   25308.82408030  .00000615  00000+0  17249-2 0  9994
2 51624  87.8786  80.9942 0001843  92.8320 267.3019 13.10373167179902
ONEWEB-0416             
1 51625U 22012D   25308.83569212  .00000330  00000+0  90984-3 0  9998
2 51625  87.8781  81.0127 0001582  95.9725 264.1582 13.10370767179945
ONEWEB-0422             
1 51626U 22012E   25308.76009152 -.00000035  00000+0 -12379-3 0  9999
2 51626  87.9136  50.4726 0002208 117.5202 242.6154 13.17650353184258
ONEWEB-0423             
1 51627U 22012F   25308.67740546 -.00000033  00000+0 -11818-3 0  9994
2 51627  87.9138  50.4990 0001672 106.0744 254.0572 13.17649678184138
ONEWEB-0425             
1 51628U 22012G   25308.76927986 -.00000230  00000+0 -69619-3 0  9991
2 51628  87.8787  80.9956 0001228  97.2473 262.8794 13.10370507179935
ONEWEB-0428             
1 51629U 22012H   25308.82574067  .00000587  00000+0  16466-2 0  9991
2 51629  87.8784  81.0045 0001743 102.3209 257.8114 13.10372579179909
ONEWEB-0431             
1 51630U 22012J   25308.79570238 -.00000398  00000+0 -11761-2 0  9990
2 51630  87.8796  80.9873 0002202  94.0111 266.1268 13.10375390179953
ONEWEB-0434             
1 51631U 22012K   25308.84895644 -.00000326  00000+0 -97117-3 0  9999
2 51631  87.8781  81.0154 0000895  98.6252 261.4977 13.10371187179948
ONEWEB-0435             
1 51632U 22012L   25308.78089485 -.00000626  00000+0 -18307-2 0  9997
2 51632  87.8780  81.0192 0001799 109.2268 250.9055 13.10372691179929
ONEWEB-0436             
1 51633U 22012M   25308.36521362  .00000040  00000+0  69363-4 0  9995
2 51633  87.9136  50.5397 0001938 105.7245 254.4100 13.17651053184076
ONEWEB-0438             
1 51634U 22012N   25308.84066771  .00000045  00000+0  93952-4 0  9993
2 51634  87.8781  81.0083 0001381  97.9360 262.1924 13.10370404179968
ONEWEB-0439             
1 51635U 22012P   25308.76762678 -.00000177  00000+0 -54324-3 0  9991
2 51635  87.8783  81.0119 0001530 101.7507 258.3792 13.10370146179934
ONEWEB-0442             
1 51636U 22012Q   25308.73730498  .00000068  00000+0  14151-3 0  9995
2 51636  87.9124  50.5167 0001252  83.5493 276.5781 13.17649955184111
ONEWEB-0443             
1 51637U 22012R   25308.75671431 -.00000103  00000+0 -29790-3 0  9996
2 51637  87.9126  50.5186 0001461 107.4953 252.6339 13.17650024184162
ONEWEB-0444             
1 51638U 22012S   25308.75767636  .00000349  00000+0  96238-3 0  9991
2 51638  87.8782  81.0126 0001572 100.8427 259.2878 13.10369433179944
ONEWEB-0445             
1 51639U 22012T   25308.77924093 -.00000601  00000+0 -17575-2 0  9995
2 51639  87.8795  80.9696 0001577  91.2928 268.8380 13.10371266179955
ONEWEB-0446             
1 51640U 22012U   25308.45058559  .00000399  00000+0  11056-2 0  9997
2 51640  87.8781  81.0903 0001695  91.7237 268.4085 13.10370806179894
ONEWEB-0448             
1 51641U 22012V   25308.83734855  .00000260  00000+0  70905-3 0  9996
2 51641  87.8785  81.0132 0001546 101.1614 258.9687 13.10370918179912
ONEWEB-0449             
1 51642U 22012W   25308.76596668 -.00000120  00000+0 -37987-3 0  9997
2 51642  87.8786  80.9970 0001100  98.7144 261.4108 13.10369898179919
ONEWEB-0451             
1 51643U 22012X   25308.74152785  .00000083  00000+0  18025-3 0  9992
2 51643  87.9135  50.4597 0001562 101.2665 258.8642 13.17651094184105
ONEWEB-0452             
1 51644U 22012Y   25308.73984044  .00000061  00000+0  12455-3 0  9990
2 51644  87.9131  50.5180 0001487 108.9043 251.2250 13.17649705184110
